[{"OBJECT_NAME":"STARLINK-34217","OBJECT_ID":"2025-133S","EPOCH":"2026-03-09T12:59:31.544448","MEAN_MOTION":15.3020563,"ECCENTRICITY":0.0001086,"INCLINATION":53.1585,"RA_OF_ASC_NODE":117.63,"ARG_OF_PERICENTER":81.4506,"MEAN_ANOMALY":278.6618,"EPHEMERIS_TYPE":0,"CLASSIFICATION_TYPE":"U","NORAD_CAT_ID":64488,"ELEMENT_SET_NO":999,"REV_AT_EPOCH":4105,"BSTAR":0.00097324,"MEAN_MOTION_DOT":0.00028581,"MEAN_MOTION_DDOT":0},{"OBJECT_NAME":"THOR AGENA B DEB","OBJECT_ID":"1965-098G","EPOCH":"2026-03-09T23:22:06.853152","MEAN_MOTION":13.57256453,"ECCENTRICITY":0.07679635,"INCLINATION":79.6109,"RA_OF_ASC_NODE":51.0692,"ARG_OF_PERICENTER":143.4347,"MEAN_ANOMALY":222.1845,"EPHEMERIS_TYPE":0,"CLASSIFICATION_TYPE":"U","NORAD_CAT_ID":1951,"ELEMENT_SET_NO":999,"REV_AT_EPOCH":79416,"BSTAR":0.00077607754,"MEAN_MOTION_DOT":4.232e-5,"MEAN_MOTION_DDOT":0}]
